EPOCH,NORAD_CAT_ID,MEAN_MOTION,ECCENTRICITY,INCLINATION,RA_OF_ASC_NODE,ARG_OF_PERICENTER,MEAN_ANOMALY,MEAN_MOTION_DOT,BSTAR,TLE_LINE1,TLE_LINE2
2024-11-17 19:01:22,50803,15.0884009,0.0001611,53.2158,149.9938,91.7795,268.3382,-0.00001428,-0.000071634,1 50803U 22001A   24322.79261679 -.00001428  00000-0 -71634-4 0  9993,2 50803  53.2158 149.9938 0001611  91.7795 268.3382 15.08840090158418
2024-11-17 23:47:31,50803,15.08840186,0.0001375,53.2165,149.0994,104.4616,255.6529,-0.00001018,-0.000045897,1 50803U 22001A   24322.99133711 -.00001018  00000-0 -45897-4 0  9997,2 50803  53.2165 149.0994 0001375 104.4616 255.6529 15.08840186159712
2024-11-18 06:09:04,50803,15.08838443,0.0001296,53.2153,147.9117,102.9302,257.1835,-0.0000117,-0.000055463,1 50803U 22001A   24323.25629812 -.00001170  00000-0 -55463-4 0  9998,2 50803  53.2153 147.9117 0001296 102.9302 257.1835 15.08838443158483
2024-11-18 22:02:55,50803,15.08843451,0.0001506,53.2162,144.9386,96.8507,263.2656,0.00000112,0.000025127,1 50803U 22001A   24323.91869731  .00000112  00000-0  25127-4 0  9994,2 50803  53.2162 144.9386 0001506  96.8507 263.2656 15.08843451158585
2024-11-19 12:21:22,50803,15.08853942,0.0001275,53.2155,142.2674,80.397,279.7166,0.00003927,0.0002646,1 50803U 22001A   24324.51484219  .00003927  00000-0  26460-3 0  9992,2 50803  53.2155 142.2674 0001275  80.3970 279.7166 15.08853942158677
2024-11-19 12:21:22,50803,15.08853942,0.0001275,53.2155,142.2674,80.397,279.7166,0.00003927,0.0002646,1 50803U 22001A   24324.51484219  .00003927  00000-0  26460-3 0  9992,2 50803  53.2155 142.2674 0001275  80.3970 279.7166 15.08853942159948
2024-11-20 02:39:08,50803,15.09321002,0.0002846,53.2136,139.5828,140.6471,219.4729,0.00062468,0.0038573,1 50803U 22001A   24325.11051361  .00062468  00000-0  38573-2 0  9999,2 50803  53.2136 139.5828 0002846 140.6471 219.4729 15.09321002160034
2024-11-20 02:39:08,50803,15.09321002,0.0002846,53.2136,139.5828,140.6471,219.4729,0.00062468,0.0038573,1 50803U 22001A   24325.11051361  .00062468  00000-0  38573-2 0  9999,2 50803  53.2136 139.5828 0002846 140.6471 219.4729 15.09321002158761
2024-11-20 18:31:30,50803,15.10722923,0.0001156,53.2151,136.6068,101.3424,258.7699,0.00362537,0.020567,1 50803U 22001A   24325.77188250  .00362537  00000-0  20567-1 0  9992,2 50803  53.2151 136.6068 0001156 101.3424 258.7699 15.10722923160132
2024-11-20 21:41:56,50803,15.10906621,0.0001083,53.2145,136.0081,163.1216,196.9813,0.00386568,0.021744,1 50803U 22001A   24325.90412597  .00386568  00000-0  21744-1 0  9999,2 50803  53.2145 136.0081 0001083 163.1216 196.9813 15.10906621158887
2024-11-21 04:00:00,50803,15.12342698,0.0001088,53.2152,134.8263,82.7432,266.3187,0.0120093,0.062722,1 50803U 22001A   24326.16667824  .01200930  00000-0  62722-1 0  9993,2 50803  53.2152 134.8263 0001088  82.7432 266.3187 15.12342698160197
2024-11-21 14:00:01,50803,15.13296837,0.0001261,53.2154,132.9443,92.6966,6.8132,0.01199677,0.061025,1 50803U 22001A   24326.58334491  .01199677  00000-0  61025-1 0  9990,2 50803  53.2154 132.9443 0001261  92.6966   6.8132 15.13296837  5855
2024-11-21 22:00:00,50803,15.14025812,0.0001283,53.2151,131.4381,82.5919,34.3148,0.01252584,0.063064,1 50803U 22001A   24326.91667824  .01252584  00000-0  63064-1 0  9998,2 50803  53.2151 131.4381 0001283  82.5919  34.3148 15.14025812  5900
2024-11-22 12:00:00,50803,15.15382641,0.0001411,53.2152,128.794,92.9327,326.5917,0.01214855,0.058226,1 50803U 22001A   24327.50001157  .01214855  00000-0  58226-1 0  9998,2 50803  53.2152 128.7940 0001411  92.9327 326.5917 15.15382641160394
2024-11-22 14:00:01,50803,15.15575311,0.000126,53.2152,128.4165,90.3646,64.0506,0.01199043,0.057223,1 50803U 22001A   24327.58334491  .01199043  00000-0  57223-1 0  9993,2 50803  53.2152 128.4165 0001260  90.3646  64.0506 15.15575311  5707
2024-11-22 22:00:00,50803,15.16306956,0.0001248,53.2147,126.9049,78.513,96.0362,0.01247924,0.058938,1 50803U 22001A   24327.91667824  .01247924  00000-0  58938-1 0  9995,2 50803  53.2147 126.9049 0001248  78.5130  96.0362 15.16306956  5755
2024-11-23 04:00:00,50803,15.16898534,0.0001284,53.2147,125.7677,91.6514,8.5866,0.01210018,0.055579,1 50803U 22001A   24328.16667824  .01210018  00000-0  55579-1 0  9995,2 50803  53.2147 125.7677 0001284  91.6514   8.5866 15.16898534160499
2024-11-23 14:00:01,50803,15.17851808,0.0001258,53.2147,123.8729,84.6165,132.9198,0.01201477,0.053742,1 50803U 22001A   24328.58334491  .01201477  00000-0  53742-1 0  9991,2 50803  53.2147 123.8729 0001258  84.6165 132.9198 15.17851808  5853
2024-11-23 22:00:00,50803,15.18589384,0.0001316,53.2141,122.3557,74.977,165.4278,0.01258073,0.054869,1 50803U 22001A   24328.91667824  .01258073  00000-0  54869-1 0  9992,2 50803  53.2141 122.3557 0001316  74.9770 165.4278 15.18589384  5846
2024-11-24 04:00:00,50803,15.19175302,0.0001194,53.2141,121.2143,88.6114,79.5389,0.01214291,0.052243,1 50803U 22001A   24329.16667824  .01214291  00000-0  52243-1 0  9998,2 50803  53.2141 121.2143 0001194  88.6114  79.5389 15.19175302160643
2024-11-24 14:00:01,50803,15.20130559,0.0001363,53.2139,119.313,82.869,206.001,0.01199997,0.050278,1 50803U 22001A   24329.58334491  .01199997  00000-0  50278-1 0  9996,2 50803  53.2139 119.3130 0001363  82.8690 206.0010 15.20130559  5853
2024-11-24 22:00:00,50803,15.20873353,0.0001418,53.2134,117.7903,76.2099,238.2646,0.01246051,0.050923,1 50803U 22001A   24329.91667824  .01246051  00000-0  50923-1 0  9993,2 50803  53.2134 117.7903 0001418  76.2099 238.2646 15.20873353  5857
2024-11-25 04:00:00,50803,15.21619717,0.0000757,53.2136,116.645,86.859,157.3909,0.00610592,0.02487,1 50803U 22001A   24330.16667824  .00610592  00000-0  24870-1 0  9998,2 50803  53.2136 116.6450 0000757  86.8590 157.3909 15.21619717160793
2024-11-25 12:00:00,50803,15.22059236,0.0001011,53.2137,115.1185,88.4849,182.9514,-0.00068539,-0.0029725,1 50803U 22001A   24330.50001157 -.00068539  00000-0 -29725-2 0  9992,2 50803  53.2137 115.1185 0001011  88.4849 182.9514 15.22059236160850
2024-11-25 14:00:01,50803,15.22046686,0.0001045,53.2136,114.7373,83.9589,284.345,-0.00063388,-0.0027471,1 50803U 22001A   24330.58334491 -.00063388  00000-0 -27471-2 0  9993,2 50803  53.2136 114.7373 0001045  83.9589 284.3450 15.22046686  5793
2024-11-26 00:00:00,50803,15.21992649,0.0001279,53.2132,112.8286,73.6937,58.8523,-0.0000782,-0.00032441,1 50803U 22001A   24331.00001157 -.00007820  00000-0 -32441-3 0  9994,2 50803  53.2132 112.8286 0001279  73.6937  58.8523 15.21992649  5819
2024-11-26 04:00:01,50803,15.21980766,0.0001237,53.2135,112.0641,80.7149,245.5963,0.00019515,0.00085643,1 50803U 22001A   24331.16668981  .00019515  00000-0  85643-3 0  9999,2 50803  53.2135 112.0641 0001237  80.7149 245.5963 15.21980766160954
2024-11-26 22:00:00,50803,15.22008826,0.0001295,53.2131,108.6295,69.7653,48.146,0.00027462,0.0011971,1 50803U 22001A   24331.91667824  .00027462  00000-0  11971-2 0  9999,2 50803  53.2131 108.6295 0001295  69.7653  48.1460 15.22008826  5841
2024-11-27 12:00:02,50803,15.22052534,0.0001273,53.2137,105.9561,79.4286,356.5492,-0.00016916,-0.00071789,1 50803U 22001A   24332.50002315 -.00016916  00000-0 -71789-3 0  9991,2 50803  53.2137 105.9561 0001273  79.4286 356.5492 15.22052534161152
2024-11-27 14:00:01,50803,15.22048108,0.000129,53.2136,105.5748,75.5637,97.2184,-0.00012578,-0.0005299,1 50803U 22001A   24332.58334491 -.00012578  00000-0 -52990-3 0  9995,2 50803  53.2136 105.5748 0001290  75.5637  97.2184 15.22048108  5808
2024-11-27 22:00:00,50803,15.22079562,0.0001222,53.2133,104.0479,71.6724,128.5768,-0.00042614,-0.0018351,1 50803U 22001A   24332.91667824 -.00042614  00000-0 -18351-2 0  9997,2 50803  53.2133 104.0479 0001222  71.6724 128.5768 15.22079562  5858
2024-11-28 04:00:00,50803,15.22048506,0.0001119,53.2136,102.9012,86.9466,43.9312,-0.00039433,-0.0016979,1 50803U 22001A   24333.16667824 -.00039433  00000-0 -16979-2 0  9994,2 50803  53.2136 102.9012 0001119  86.9466  43.9312 15.22048506161254
2024-11-28 14:00:01,50803,15.22019272,0.0001214,53.2137,100.9935,85.9964,169.1915,-0.0001512,-0.00064063,1 50803U 22001A   24333.58334491 -.00015120  00000-0 -64063-3 0  9996,2 50803  53.2137 100.9935 0001214  85.9964 169.1915 15.22019272  5755
2024-11-28 20:00:01,50803,15.21990459,0.0001197,53.2136,99.8487,80.6508,105.105,0.00055368,0.0023913,1 50803U 22001A   24333.83334491  .00055368  00000-0  23913-2 0  9998,2 50803  53.2136  99.8487 0001197  80.6508 105.1050 15.21990459161351
2024-11-28 22:00:00,50803,15.22020843,0.0001178,53.2134,99.4665,82.2444,200.3571,0.0000095,0.000055289,1 50803U 22001A   24333.91667824  .00000950  00000-0  55289-4 0  9996,2 50803  53.2134  99.4665 0001178  82.2444 200.3571 15.22020843  5804
2024-11-29 00:00:00,50803,15.22036605,0.0001195,53.2136,99.0842,85.5354,293.9214,-0.00029284,-0.0012559,1 50803U 22001A   24334.00001157 -.00029284  00000-0 -12559-2 0  9992,2 50803  53.2136  99.0842 0001195  85.5354 293.9214 15.22036605161385
2024-11-29 17:15:05,50803,15.22027052,0.0003324,53.2161,95.7874,66.1063,294.0282,0.00008237,0.00036976,1 50803U 22001A   24334.71881505  .00008237  00000-0  36976-3 0  9996,2 50803  53.2161  95.7874 0003324  66.1063 294.0282 15.22027052160224
2024-11-29 17:15:05,50803,15.22027052,0.0003324,53.2161,95.7874,66.1063,294.0282,0.00008237,0.00036976,1 50803U 22001A   24334.71881505  .00008237  00000-0  36976-3 0  9996,2 50803  53.2161  95.7874 0003324  66.1063 294.0282 15.22027052161494
2024-11-30 18:28:00,50803,15.22051629,0.0001301,53.2163,90.9735,103.0231,257.0912,0.00011391,0.00050533,1 50803U 22001A   24335.76945032  .00011391  00000-0  50533-3 0  9998,2 50803  53.2163  90.9735 0001301 103.0231 257.0912 15.22051629161654
2024-11-30 18:28:00,50803,15.22051629,0.0001301,53.2163,90.9735,103.0231,257.0912,0.00011391,0.00050533,1 50803U 22001A   24335.76945032  .00011391  00000-0  50533-3 0  9998,2 50803  53.2163  90.9735 0001301 103.0231 257.0912 15.22051629160383
